CCSDS_OMM_VERS,COMMENT,CREATION_DATE,ORIGINATOR,OBJECT_NAME,OBJECT_ID,CENTER_NAME,REF_FRAME,TIME_SYSTEM,MEAN_ELEMENT_THEORY,EPOCH,MEAN_MOTION,ECCENTRICITY,INCLINATION,RA_OF_ASC_NODE,ARG_OF_PERICENTER,MEAN_ANOMALY,EPHEMERIS_TYPE,CLASSIFICATION_TYPE,NORAD_CAT_ID,ELEMENT_SET_NO,REV_AT_EPOCH,BSTAR,MEAN_MOTION_DOT,MEAN_MOTION_DDOT,SEMIMAJOR_AXIS,PERIOD,APOAPSIS,PERIAPSIS,OBJECT_TYPE,RCS_SIZE,COUNTRY_CODE,LAUNCH_DATE,SITE,DECAY_DATE,FILE,GP_ID,TLE_LINE0,TLE_LINE1,TLE_LINE2
2,GENERATED VIA SPACE-TRACK.ORG API,2020-10-03T18:08:34,18 SPCS,GALILEO-FM2,2011-060B,EARTH,TEME,UTC,SGP4,2020-10-03T10:06:57.194784,1.70475649,0.0002092,56.6975,38.3204,299.3647,76.8228,0,U,37847,999,5562,0.0,-7.4e-07,0,29600.129,844.695,23228.186,23215.801,PAYLOAD,LARGE,ESA,2011-10-21,FRGUI,,2841306,162683183,0 GALILEO-FM2,1 37847U 11060B   20277.42149531 -.00000074 +00000-0 +00000-0 0  9996,2 37847 056.6975 038.3204 0002092 299.3647 076.8228 01.70475649055626
2,GENERATED VIA SPACE-TRACK.ORG API,2020-10-04T18:34:11,18 SPCS,GALILEO-FM2,2011-060B,EARTH,TEME,UTC,SGP4,2020-10-04T13:35:30.708096,1.7047564,0.0002126,56.6981,38.2891,298.6355,60.1614,0,U,37847,999,5563,0.0,-7e-07,0,29600.13,844.695,23228.288,23215.702,PAYLOAD,LARGE,ESA,2011-10-21,FRGUI,,2842313,162746352,0 GALILEO-FM2,1 37847U 11060B   20278.56632764 -.00000070 +00000-0 +00000-0 0  9993,2 37847 056.6981 038.2891 0002126 298.6355 060.1614 01.70475640055637
2,GENERATED VIA SPACE-TRACK.ORG API,2020-10-05T22:26:11,18 SPCS,GALILEO-FM2,2011-060B,EARTH,TEME,UTC,SGP4,2020-10-05T17:32:05.726976,1.7047562,0.0002165,56.6988,38.2572,297.8608,55.4897,0,U,37847,999,5577,0.0,-6.5e-07,0,29600.132,844.695,23228.405,23215.589,PAYLOAD,LARGE,ESA,2011-10-21,FRGUI,,2843472,162838497,0 GALILEO-FM2,1 37847U 11060B   20279.73062184 -.00000065  00000-0  00000+0 0  9999,2 37847  56.6988  38.2572 0002165 297.8608  55.4897  1.70475620 55778
2,GENERATED VIA SPACE-TRACK.ORG API,2020-10-07T16:49:45,18 SPCS,GALILEO-FM2,2011-060B,EARTH,TEME,UTC,SGP4,2020-10-07T04:53:04.560000,1.70475575,0.0002219,56.6996,38.2169,297.3398,239.9643,0,U,37847,999,5568,0.0,-6e-07,0,29600.137,844.695,23228.571,23215.434,PAYLOAD,LARGE,ESA,2011-10-21,FRGUI,,2845327,162954369,0 GALILEO-FM2,1 37847U 11060B   20281.20352500 -.00000060 +00000-0 +00000-0 0  9994,2 37847 056.6996 038.2169 0002219 297.3398 239.9643 01.70475575055687
2,GENERATED VIA SPACE-TRACK.ORG API,2020-10-08T03:31:04,18 SPCS,GALILEO-FM2,2011-060B,EARTH,TEME,UTC,SGP4,2020-10-07T12:16:23.181024,1.70475565,0.0002223,56.6997,38.2084,297.138,69.1033,0,U,37847,999,5569,0.0,-5.9e-07,0,29600.138,844.695,23228.584,23215.423,PAYLOAD,LARGE,ESA,2011-10-21,FRGUI,,2845626,162980864,0 GALILEO-FM2,1 37847U 11060B   20281.51137941 -.00000059 +00000-0 +00000-0 0  9996,2 37847 056.6997 038.2084 0002223 297.1380 069.1033 01.70475565055694
2,GENERATED VIA SPACE-TRACK.ORG API,2020-10-09T01:49:31,18 SPCS,GALILEO-FM2,2011-060B,EARTH,TEME,UTC,SGP4,2020-10-08T16:14:42.593568,1.70475521,0.0002256,56.7003,38.1765,296.6704,64.8658,0,U,37847,999,5571,0.0,-5.6e-07,0,29600.143,844.696,23228.686,23215.331,PAYLOAD,LARGE,ESA,2011-10-21,FRGUI,,2846764,163048088,0 GALILEO-FM2,1 37847U 11060B   20282.67688187 -.00000056 +00000-0 +00000-0 0  9994,2 37847 056.7003 038.1765 0002256 296.6704 064.8658 01.70475521055718
2,GENERATED VIA SPACE-TRACK.ORG API,2020-10-09T06:46:10,18 SPCS,GALILEO-FM2,2011-060B,EARTH,TEME,UTC,SGP4,2020-10-08T16:14:42.593568,1.70475521,0.0002256,56.7003,38.1765,296.6704,64.8658,0,U,37847,999,5583,0.0,-5.6e-07,0,29600.143,844.696,23228.686,23215.331,PAYLOAD,LARGE,ESA,2011-10-21,FRGUI,,2846965,163058280,0 GALILEO-FM2,1 37847U 11060B   20282.67688187 -.00000056  00000-0  00000+0 0  9993,2 37847  56.7003  38.1765 0002256 296.6704  64.8658  1.70475521 55831
2,GENERATED VIA SPACE-TRACK.ORG API,2020-10-09T19:28:40,18 SPCS,GALILEO-FM2,2011-060B,EARTH,TEME,UTC,SGP4,2020-10-09T09:53:55.646304,1.70475489,0.0002279,56.7007,38.1564,296.0995,156.8709,0,U,37847,999,5572,0.0,-5.5e-07,0,29600.147,844.696,23228.758,23215.266,PAYLOAD,LARGE,ESA,2011-10-21,FRGUI,,2847376,163081704,0 GALILEO-FM2,1 37847U 11060B   20283.41244961 -.00000055 +00000-0 +00000-0 0  9994,2 37847 056.7007 038.1564 0002279 296.0995 156.8709 01.70475489055723
2,GENERATED VIA SPACE-TRACK.ORG API,2020-10-10T16:51:04,18 SPCS,GALILEO-FM2,2011-060B,EARTH,TEME,UTC,SGP4,2020-10-09T20:22:55.583616,1.70475471,0.000229,56.701,38.1444,295.9622,65.0851,0,U,37847,999,5573,0.0,-5.5e-07,0,29600.149,844.696,23228.793,23215.236,PAYLOAD,LARGE,ESA,2011-10-21,FRGUI,,2848262,163162986,0 GALILEO-FM2,1 37847U 11060B   20283.84925444 -.00000055 +00000-0 +00000-0 0  9993,2 37847 056.7010 038.1444 0002290 295.9622 065.0851 01.70475471055733
2,GENERATED VIA SPACE-TRACK.ORG API,2020-10-11T01:05:49,18 SPCS,GALILEO-FM2,2011-060B,EARTH,TEME,UTC,SGP4,2020-10-10T10:47:53.334240,1.70475446,0.0002306,56.7013,38.1279,295.6581,74.0327,0,U,37847,999,5574,0.0,-5.5e-07,0,29600.152,844.696,23228.843,23215.191,PAYLOAD,LARGE,ESA,2011-10-21,FRGUI,,2848566,163191490,0 GALILEO-FM2,1 37847U 11060B   20284.44992285 -.00000055 +00000-0 +00000-0 0  9997,2 37847 056.7013 038.1279 0002306 295.6581 074.0327 01.70475446055742
2,GENERATED VIA SPACE-TRACK.ORG API,2020-10-11T22:46:10,18 SPCS,GALILEO-FM2,2011-060B,EARTH,TEME,UTC,SGP4,2020-10-11T14:30:13.192704,1.70475399,0.0002341,56.702,38.0963,295.1191,63.0504,0,U,37847,999,5587,0.0,-5.6e-07,0,29600.158,844.696,23228.952,23215.093,PAYLOAD,LARGE,ESA,2011-10-21,FRGUI,,2849447,163279628,0 GALILEO-FM2,1 37847U 11060B   20285.60431936 -.00000056  00000-0  00000+0 0  9997,2 37847  56.7020  38.0963 0002341 295.1191  63.0504  1.70475399 55876
2,GENERATED VIA SPACE-TRACK.ORG API,2020-10-12T18:17:38,18 SPCS,GALILEO-FM2,2011-060B,EARTH,TEME,UTC,SGP4,2020-10-12T04:36:49.015008,1.70475378,0.0002358,56.7024,38.0801,294.8305,64.1553,0,U,37847,999,5576,0.0,-5.7e-07,0,29600.16,844.696,23229.005,23215.045,PAYLOAD,LARGE,ESA,2011-10-21,FRGUI,,2850208,163329187,0 GALILEO-FM2,1 37847U 11060B   20286.19223397 -.00000057 +00000-0 +00000-0 0  9994,2 37847 056.7024 038.0801 0002358 294.8305 064.1553 01.70475378055763
2,GENERATED VIA SPACE-TRACK.ORG API,2020-10-13T18:45:37,18 SPCS,GALILEO-FM2,2011-060B,EARTH,TEME,UTC,SGP4,2020-10-13T08:45:38.688768,1.70475339,0.0002397,56.7029,38.0479,294.3724,64.3849,0,U,37847,999,5578,0.0,-6.1e-07,0,29600.165,844.696,23229.125,23214.934,PAYLOAD,LARGE,ESA,2011-10-21,FRGUI,,2851309,163395248,0 GALILEO-FM2,1 37847U 11060B   20287.36503112 -.00000061 +00000-0 +00000-0 0  9995,2 37847 056.7029 038.0479 0002397 294.3724 064.3849 01.70475339055781
2,GENERATED VIA SPACE-TRACK.ORG API,2020-10-14T04:20:47,18 SPCS,GALILEO-FM2,2011-060B,EARTH,TEME,UTC,SGP4,2020-10-13T08:45:38.688768,1.70475339,0.0002397,56.7029,38.0479,294.3724,64.3849,0,U,37847,999,5590,0.0,-6.1e-07,0,29600.165,844.696,23229.125,23214.934,PAYLOAD,LARGE,ESA,2011-10-21,FRGUI,,2851462,163439417,0 GALILEO-FM2,1 37847U 11060B   20287.36503112 -.00000061 +00000-0 +00000-0 0  9995,2 37847 056.7029 038.0479 0002397 294.3724 064.3849 01.70475339055905
2,GENERATED VIA SPACE-TRACK.ORG API,2020-10-14T20:53:38,18 SPCS,GALILEO-FM2,2011-060B,EARTH,TEME,UTC,SGP4,2020-10-14T01:38:24.989856,1.70475318,0.000242,56.7032,38.0286,293.85,136.5464,0,U,37847,999,5580,0.0,-6.4e-07,0,29600.167,844.697,23229.195,23214.869,PAYLOAD,LARGE,ESA,2011-10-21,FRGUI,,2852229,163470490,0 GALILEO-FM2,1 37847U 11060B   20288.06834479 -.00000064 +00000-0 +00000-0 0  9999,2 37847 056.7032 038.0286 0002420 293.8500 136.5464 01.70475318055809
2,GENERATED VIA SPACE-TRACK.ORG API,2020-10-15T04:21:20,18 SPCS,GALILEO-FM2,2011-060B,EARTH,TEME,UTC,SGP4,2020-10-14T12:51:26.909568,1.70475307,0.0002438,56.7034,38.0158,293.7597,63.4802,0,U,37847,999,5580,0.0,-6.6e-07,0,29600.168,844.697,23229.25,23214.817,PAYLOAD,LARGE,ESA,2011-10-21,FRGUI,,2852382,163493342,0 GALILEO-FM2,1 37847U 11060B   20288.53572812 -.00000066 +00000-0 +00000-0 0  9993,2 37847 056.7034 038.0158 0002438 293.7597 063.4802 01.70475307055805
2,GENERATED VIA SPACE-TRACK.ORG API,2020-10-16T14:46:09,18 SPCS,GALILEO-FM2,2011-060B,EARTH,TEME,UTC,SGP4,2020-10-16T07:50:13.582176,1.70475279,0.0002493,56.7045,37.9667,293.0186,83.2857,0,U,37847,999,5596,0.0,-7.2e-07,0,29600.172,844.697,23229.416,23214.657,PAYLOAD,LARGE,ESA,2011-10-21,FRGUI,,2853872,163594507,0 GALILEO-FM2,1 37847U 11060B   20290.32654609 -.00000072  00000-0  00000+0 0  9994,2 37847  56.7045  37.9667 0002493 293.0186  83.2857  1.70475279 55963
2,GENERATED VIA SPACE-TRACK.ORG API,2020-10-18T03:40:11,18 SPCS,GALILEO-FM2,2011-060B,EARTH,TEME,UTC,SGP4,2020-10-17T11:49:21.230976,1.70475275,0.000253,56.7052,37.9347,292.6353,79.306,0,U,37847,999,5586,0.0,-7.6e-07,0,29600.172,844.697,23229.526,23214.548,PAYLOAD,LARGE,ESA,2011-10-21,FRGUI,,2855330,163703432,0 GALILEO-FM2,1 37847U 11060B   20291.49260684 -.00000076 +00000-0 +00000-0 0  9994,2 37847 056.7052 037.9347 0002530 292.6353 079.3060 01.70475275055866
2,GENERATED VIA SPACE-TRACK.ORG API,2020-10-20T04:05:29,18 SPCS,GALILEO-FM2,2011-060B,EARTH,TEME,UTC,SGP4,2020-10-19T05:36:19.578816,1.70475287,0.0002584,56.7062,37.887,292.0725,68.33,0,U,37847,999,5601,0.0,-8e-07,0,29600.171,844.697,23229.684,23214.387,PAYLOAD,LARGE,ESA,2011-10-21,FRGUI,,2857063,163825186,0 GALILEO-FM2,1 37847U 11060B   20293.23355994 -.00000080 +00000-0 +00000-0 0  9992,2 37847 056.7062 037.8870 0002584 292.0725 068.3300 01.70475287056019
2,GENERATED VIA SPACE-TRACK.ORG API,2020-10-20T17:38:06,18 SPCS,GALILEO-FM2,2011-060B,EARTH,TEME,UTC,SGP4,2020-10-19T05:36:19.578816,1.70475287,0.0002584,56.7062,37.887,292.0725,68.33,0,U,37847,999,5601,0.0,-8e-07,0,29600.171,844.697,23229.684,23214.387,PAYLOAD,LARGE,ESA,2011-10-21,FRGUI,,2857328,163914431,0 GALILEO-FM2,1 37847U 11060B   20293.23355994 -.00000080 +00000-0 +00000-0 0  9992,2 37847 056.7062 037.8870 0002584 292.0725 068.3300 01.70475287056019
